QIANFAN-1               
1 60379U 24140A   25300.47638293  .00000048  00000+0  55251-4 0  9991
2 60379  88.9731 304.0791 0017280 355.5651   4.5345 13.50977361 61106
QIANFAN-2               
1 60380U 24140B   25300.50524714  .00000039  00000+0  42490-4 0  9990
2 60380  88.9717 303.9217 0011644 329.0827  30.9637 13.50969481 61169
QIANFAN-3               
1 60381U 24140C   25300.51353130  .00000040  00000+0  44035-4 0  9993
2 60381  88.9709 304.0570 0013194 341.7790  18.2886 13.50969318 61071
QIANFAN-4               
1 60382U 24140D   25300.48874953  .00000047  00000+0  54762-4 0  9996
2 60382  88.9734 303.9456 0011968 331.8607  28.1896 13.50976190 61195
QIANFAN-5               
1 60383U 24140E   25300.46411911  .00000056  00000+0  68720-4 0  9995
2 60383  88.9709 304.0877 0014853 352.7392   7.3542 13.50972912 61056
QIANFAN-6               
1 60384U 24140F   25300.48472038  .00000045  00000+0  50675-4 0  9993
2 60384  88.9735 303.8193 0012271 338.0673  21.9951 13.50973942 61257
QIANFAN-7               
1 60385U 24140G   25300.48398630  .00000306  00000+0  11823-3 0  9990
2 60385  88.9746 299.1645 0014598 184.1934 175.9140 14.27584765 63790
QIANFAN-8               
1 60386U 24140H   25300.49291168  .00000054  00000+0  64769-4 0  9998
2 60386  88.9737 304.0552 0015780 338.5266  21.5222 13.50972040 61103
